*******************************************************************************
Ephemeris / WWW_USER Mon Mar 10 14:37:07 2025 Pasadena, USA      / Horizons    
*******************************************************************************
Target body name: 468861 (2013 LU28)              {source: JPL#36}
Center body name: Earth (399)                     {source: DE441}
Center-site name: Mauna Kea
*******************************************************************************
Start time      : A.D. 2018-Nov-23 03:51:00.0000 UT      
Stop  time      : A.D. 2018-Nov-23 16:25:00.0000 UT      
Step-size       : 1 minutes
*******************************************************************************
Target pole/equ : undefined
Target radii    : undefined                                                    
Center geodetic : 204.5278, 19.8260847, 4.21024   {E-lon(deg),Lat(deg),Alt(km)}
Center cylindric: 204.5278, 6006.35451, 2151.0229 {E-lon(deg),Dxy(km),Dz(km)}
Center pole/equ : ITRF93                          {East-longitude positive}
Center radii    : 6378.137, 6378.137, 6356.752 km {Equator_a, b, pole_c}       
Target primary  : Sun
Vis. interferer : MOON (R_eq= 1737.400) km        {source: DE441}
Rel. light bend : Sun                             {source: DE441}
Rel. lght bnd GM: 1.3271E+11 km^3/s^2                                          
Small-body perts: Yes                             {source: SB441-N16}
Atmos refraction: NO (AIRLESS)
RA format       : HMS
Time format     : CAL 
Calendar mode   : Mixed Julian/Gregorian
RTS-only print  : NO       
EOP file        : eop.250307.p250603                                           
EOP coverage    : DATA-BASED 1962-JAN-20 TO 2025-MAR-07. PREDICTS-> 2025-JUN-02
Units conversion: 1 au= 149597870.700 km, c= 299792.458 km/s, 1 day= 86400.0 s 
Table cut-offs 1: Elevation (-90.0deg=NO ),Airmass (>38.000=NO), Daylight (YES)
Table cut-offs 2: Solar elongation (  0.0,180.0=NO ),Local Hour Angle( 0.0=NO )
Table cut-offs 3: RA/DEC angular rate (     0.0=NO )                           
*******************************************************************************
Initial IAU76/J2000 heliocentric ecliptic osculating elements (au, days, deg.):
  EPOCH=  2459491.5 ! 2021-Oct-04.00 (TDB)         Residual RMS= .14077        
   EC= .9545524767334098   QR= 8.741840911970645   TP= 2460480.7801673855      
   OM= 275.9923561772391   W=  152.9171912923278   IN= 125.3473013584344       
  Equivalent ICRF heliocentric cartesian coordinates (au, au/d):
   X=-6.020062670108302E+00  Y=-1.182282064265113E+00  Z= 8.330249486138040E+00
  VX= 2.086988006100027E-03 VY= 7.079392581348984E-03 VZ=-1.092497303529149E-03
Asteroid physical parameters (km, seconds, rotational period in hours):        
   GM= n.a.                RAD= n.a.               ROTPER= n.a.                
   H= 8.24                 G= .150                 B-V= n.a.                   
                           ALBEDO= n.a.            STYP= n.a.                  
*******************************************************************************
 Date__(UT)__HR:MN     R.A._________(ICRF)_________DEC
******************************************************
$$SOE
 2018-Nov-23 14:06  m  15 14 08.940488 +34 15 40.86931
 2018-Nov-23 14:07  m  15 14 08.950865 +34 15 40.90157
 2018-Nov-23 14:08  m  15 14 08.961240 +34 15 40.93384
 2018-Nov-23 14:09  m  15 14 08.971615 +34 15 40.96611
 2018-Nov-23 14:10  m  15 14 08.981988 +34 15 40.99839
 2018-Nov-23 14:11  m  15 14 08.992361 +34 15 41.03067
 2018-Nov-23 14:12  m  15 14 09.002733 +34 15 41.06295
 2018-Nov-23 14:13  m  15 14 09.013105 +34 15 41.09524
 2018-Nov-23 14:14  m  15 14 09.023475 +34 15 41.12753
 2018-Nov-23 14:15  m  15 14 09.033845 +34 15 41.15983
 2018-Nov-23 14:16  r  15 14 09.044213 +34 15 41.19212
 2018-Nov-23 14:17  m  15 14 09.054581 +34 15 41.22442
 2018-Nov-23 14:18  m  15 14 09.064948 +34 15 41.25673
 2018-Nov-23 14:19  m  15 14 09.075314 +34 15 41.28904
 2018-Nov-23 14:20  m  15 14 09.085679 +34 15 41.32135
 2018-Nov-23 14:21  m  15 14 09.096044 +34 15 41.35366
 2018-Nov-23 14:22  m  15 14 09.106407 +34 15 41.38598
 2018-Nov-23 14:23  m  15 14 09.116770 +34 15 41.41830
 2018-Nov-23 14:24  m  15 14 09.127132 +34 15 41.45063
 2018-Nov-23 14:25  m  15 14 09.137493 +34 15 41.48296
 2018-Nov-23 14:26  m  15 14 09.147853 +34 15 41.51529
 2018-Nov-23 14:27  m  15 14 09.158212 +34 15 41.54763
 2018-Nov-23 14:28  m  15 14 09.168571 +34 15 41.57996
 2018-Nov-23 14:29  m  15 14 09.178928 +34 15 41.61230
 2018-Nov-23 14:30  m  15 14 09.189285 +34 15 41.64465
 2018-Nov-23 14:31  m  15 14 09.199641 +34 15 41.67700
 2018-Nov-23 14:32  m  15 14 09.209996 +34 15 41.70935
 2018-Nov-23 14:33  m  15 14 09.220350 +34 15 41.74170
 2018-Nov-23 14:34  m  15 14 09.230703 +34 15 41.77406
 2018-Nov-23 14:35  m  15 14 09.241055 +34 15 41.80642
 2018-Nov-23 14:36  m  15 14 09.251406 +34 15 41.83878
 2018-Nov-23 14:37  m  15 14 09.261757 +34 15 41.87115
 2018-Nov-23 14:38  m  15 14 09.272107 +34 15 41.90352
 2018-Nov-23 14:39  m  15 14 09.282455 +34 15 41.93589
 2018-Nov-23 14:40  m  15 14 09.292803 +34 15 41.96827
 2018-Nov-23 14:41  m  15 14 09.303150 +34 15 42.00064
 2018-Nov-23 14:42  m  15 14 09.313497 +34 15 42.03302
 2018-Nov-23 14:43  m  15 14 09.323842 +34 15 42.06541
 2018-Nov-23 14:44  m  15 14 09.334186 +34 15 42.09779
 2018-Nov-23 14:45  m  15 14 09.344530 +34 15 42.13018
 2018-Nov-23 14:46  m  15 14 09.354873 +34 15 42.16258
 2018-Nov-23 14:47  m  15 14 09.365214 +34 15 42.19497
 2018-Nov-23 14:48  m  15 14 09.375555 +34 15 42.22737
 2018-Nov-23 14:49  m  15 14 09.385895 +34 15 42.25977
 2018-Nov-23 14:50  m  15 14 09.396234 +34 15 42.29217
 2018-Nov-23 14:51  m  15 14 09.406573 +34 15 42.32458
 2018-Nov-23 14:52  m  15 14 09.416910 +34 15 42.35698
 2018-Nov-23 14:53  m  15 14 09.427246 +34 15 42.38939
 2018-Nov-23 14:54  m  15 14 09.437582 +34 15 42.42181
 2018-Nov-23 14:55  m  15 14 09.447917 +34 15 42.45422
 2018-Nov-23 14:56  m  15 14 09.458251 +34 15 42.48664
 2018-Nov-23 14:57  m  15 14 09.468584 +34 15 42.51906
 2018-Nov-23 14:58  m  15 14 09.478916 +34 15 42.55149
 2018-Nov-23 14:59  m  15 14 09.489247 +34 15 42.58391
 2018-Nov-23 15:00  m  15 14 09.499577 +34 15 42.61634
 2018-Nov-23 15:01  m  15 14 09.509906 +34 15 42.64877
 2018-Nov-23 15:02  m  15 14 09.520235 +34 15 42.68120
 2018-Nov-23 15:03  m  15 14 09.530563 +34 15 42.71364
 2018-Nov-23 15:04  m  15 14 09.540889 +34 15 42.74607
 2018-Nov-23 15:05  m  15 14 09.551215 +34 15 42.77851
 2018-Nov-23 15:06  m  15 14 09.561540 +34 15 42.81096
 2018-Nov-23 15:07  m  15 14 09.571864 +34 15 42.84340
 2018-Nov-23 15:08  m  15 14 09.582187 +34 15 42.87585
 2018-Nov-23 15:09  m  15 14 09.592509 +34 15 42.90829
 2018-Nov-23 15:10  m  15 14 09.602831 +34 15 42.94075
 2018-Nov-23 15:11  m  15 14 09.613151 +34 15 42.97320
 2018-Nov-23 15:12  m  15 14 09.623471 +34 15 43.00565
 2018-Nov-23 15:13  m  15 14 09.633790 +34 15 43.03811
 2018-Nov-23 15:14  m  15 14 09.644107 +34 15 43.07057
 2018-Nov-23 15:15  m  15 14 09.654424 +34 15 43.10303
 2018-Nov-23 15:16  m  15 14 09.664740 +34 15 43.13549
 2018-Nov-23 15:17  m  15 14 09.675055 +34 15 43.16796
 2018-Nov-23 15:18  m  15 14 09.685370 +34 15 43.20042
 2018-Nov-23 15:19 Am  15 14 09.695683 +34 15 43.23289
 2018-Nov-23 15:20 Am  15 14 09.705995 +34 15 43.26536
 2018-Nov-23 15:21 Am  15 14 09.716307 +34 15 43.29783
 2018-Nov-23 15:22 Am  15 14 09.726618 +34 15 43.33031
 2018-Nov-23 15:23 Am  15 14 09.736927 +34 15 43.36278
 2018-Nov-23 15:24 Am  15 14 09.747236 +34 15 43.39526
 2018-Nov-23 15:25 Am  15 14 09.757544 +34 15 43.42774
 2018-Nov-23 15:26 Am  15 14 09.767851 +34 15 43.46022
 2018-Nov-23 15:27 Am  15 14 09.778157 +34 15 43.49270
 2018-Nov-23 15:28 Am  15 14 09.788463 +34 15 43.52519
 2018-Nov-23 15:29 Am  15 14 09.798767 +34 15 43.55767
 2018-Nov-23 15:30 Am  15 14 09.809071 +34 15 43.59016
 2018-Nov-23 15:31 Am  15 14 09.819373 +34 15 43.62265
 2018-Nov-23 15:32 Am  15 14 09.829675 +34 15 43.65514
 2018-Nov-23 15:33 Am  15 14 09.839976 +34 15 43.68763
 2018-Nov-23 15:34 Am  15 14 09.850276 +34 15 43.72013
 2018-Nov-23 15:35 Am  15 14 09.860575 +34 15 43.75262
 2018-Nov-23 15:36 Am  15 14 09.870873 +34 15 43.78512
 2018-Nov-23 15:37 Am  15 14 09.881170 +34 15 43.81762
 2018-Nov-23 15:38 Am  15 14 09.891466 +34 15 43.85011
 2018-Nov-23 15:39 Am  15 14 09.901762 +34 15 43.88261
 2018-Nov-23 15:40 Am  15 14 09.912056 +34 15 43.91512
 2018-Nov-23 15:41 Am  15 14 09.922350 +34 15 43.94762
 2018-Nov-23 15:42 Am  15 14 09.932643 +34 15 43.98012
 2018-Nov-23 15:43 Am  15 14 09.942934 +34 15 44.01263
 2018-Nov-23 15:44 Am  15 14 09.953225 +34 15 44.04514
 2018-Nov-23 15:45 Nm  15 14 09.963516 +34 15 44.07765
 2018-Nov-23 15:46 Nm  15 14 09.973805 +34 15 44.11015
 2018-Nov-23 15:47 Nm  15 14 09.984093 +34 15 44.14267
 2018-Nov-23 15:48 Nm  15 14 09.994380 +34 15 44.17518
 2018-Nov-23 15:49 Nm  15 14 10.004667 +34 15 44.20769
 2018-Nov-23 15:50 Nm  15 14 10.014953 +34 15 44.24020
 2018-Nov-23 15:51 Nm  15 14 10.025237 +34 15 44.27272
 2018-Nov-23 15:52 Nm  15 14 10.035521 +34 15 44.30523
 2018-Nov-23 15:53 Nm  15 14 10.045804 +34 15 44.33775
 2018-Nov-23 15:54 Nm  15 14 10.056086 +34 15 44.37027
 2018-Nov-23 15:55 Nm  15 14 10.066367 +34 15 44.40279
 2018-Nov-23 15:56 Nm  15 14 10.076648 +34 15 44.43531
 2018-Nov-23 15:57 Nm  15 14 10.086927 +34 15 44.46783
 2018-Nov-23 15:58 Nm  15 14 10.097205 +34 15 44.50035
 2018-Nov-23 15:59 Nm  15 14 10.107483 +34 15 44.53287
 2018-Nov-23 16:00 Nm  15 14 10.117760 +34 15 44.56539
 2018-Nov-23 16:01 Nm  15 14 10.128036 +34 15 44.59792
 2018-Nov-23 16:02 Nm  15 14 10.138311 +34 15 44.63044
 2018-Nov-23 16:03 Nm  15 14 10.148585 +34 15 44.66297
 2018-Nov-23 16:04 Nm  15 14 10.158858 +34 15 44.69549
 2018-Nov-23 16:05 Nm  15 14 10.169130 +34 15 44.72802
 2018-Nov-23 16:06 Nm  15 14 10.179402 +34 15 44.76054
 2018-Nov-23 16:07 Nm  15 14 10.189672 +34 15 44.79307
 2018-Nov-23 16:08 Nm  15 14 10.199942 +34 15 44.82560
